MOLNIYA 2-9             
1 07276U 74026A   21347.76041736  .00000030  00000+0  00000+0 0  9993
2 07276  64.2513 253.8130 6576621 283.5061  15.5911  2.45095680244668
MOLNIYA 2-10            
1 07376U 74056A   21347.46888304  .00000850  00000+0  00000+0 0  9994
2 07376  63.8861 113.8643 6685905 288.2977  13.3631  2.01182720346615
MOLNIYA 1-S             
1 07392U 74060A   21348.80710571 -.00000325  00000+0  00000+0 0  9994
2 07392   5.5787 285.7592 0010134 204.3338 351.5062  1.00284068117678
MOLNIYA 1-29            
1 07780U 75036A   21348.74720494  .00000183  00000+0 -20616-1 0  9996
2 07780  63.3451 236.7606 7046884 289.4988  11.0707  2.00590624341946
MOLNIYA 2-14            
1 08195U 75081A   21348.60073700 -.00000996  00000+0  00000+0 0  9998
2 08195  63.3705 208.4946 6928876 293.8005  10.6944  2.02096357339154
MOLNIYA 1-32            
1 08601U 76006A   21348.55585122  .00001251  00000+0  33025-2 0  9998
2 08601  63.3188 324.3953 7351126 283.0933  10.5565  1.99969998335303
MOLNIYA 1-36            
1 09880U 77021A   21348.89365453 -.00000271  00000+0 -18656-2 0  9992
2 09880  63.1661 294.4505 7312992 289.1322   9.5325  2.00334993225667
MOLNIYA 3-8             
1 10455U 77105A   21349.13504489 -.00000528  00000+0 -61589-4 0  9997
2 10455  62.9643  26.7303 7396846 281.1955  10.7302  2.00427157323360
MOLNIYA 1-40            
1 10925U 78055A   21348.25665784 -.00000608  00000+0  00000+0 0  9996
2 10925  62.9541  74.5697 7216001 279.9715  12.2865  2.00578698318967
MOLNIYA 3-10            
1 11057U 78095A   21348.64228090  .00000086  00000+0  19949-3 0  9990
2 11057  62.9004 108.0069 5814596 308.1133  12.4203  4.09832874376157
MOLNIYA 3-13            
1 11896U 80063A   21347.52148778  .00000061  00000+0  00000+0 0  9996
2 11896  62.6184 160.7599 7044780 276.1201  14.5543  2.00575664303362
MOLNIYA 1-49            
1 12156U 81009A   21348.95752821  .00000164  00000+0  45700-3 0  9999
2 12156  61.7211 193.0462 7194297 259.6772  19.3907  2.05698316217725
MOLNIYA 1-52            
1 13012U 81123A   21348.96441552  .00000750  00000+0  77102-2 0  9996
2 13012  62.3220 306.5902 7293208 252.3181  21.9742  2.00858652292949
MOLNIYA 1-53            
1 13070U 82015A   21349.33151677  .00001576  00000+0  12758-1 0  9991
2 13070  62.5050 238.0266 7170791 281.8816  12.1902  2.00482006291553
MOLNIYA 3-20            
1 13875U 83015A   21348.59397841 -.00001276  00000+0 -48395-3 0  9994
2 13875  63.1507  21.8979 7379877 256.7308  18.7799  2.00827193220044
MOLNIYA 1-56            
1 13890U 83019A   21346.58943309 -.00001749  00000+0  34056-4 0  9992
2 13890  63.0747  47.9068 7403926 262.6606  16.1616  1.99894591282865
MOLNIYA 1-62            
1 15214U 84089A   21346.83826826  .00004485  00000+0  51647-3 0  9997
2 15214  62.7885  48.7194 7536319 269.4084  12.8596  1.98175796240551
MOLNIYA 1-63            
1 15429U 84124A   21349.04076417  .00000254  00000+0  00000+0 0  9997
2 15429  63.6418 185.0560 6558656 261.3876 344.5444  2.00331276271103
MOLNIYA 3-24            
1 15738U 85040A   21348.51858365  .00000048  00000+0  00000+0 0  9990
2 15738  63.7692 116.1927 6710677 247.8860  31.5106  2.55626928299141
MOLNIYA 3-27            
1 16393U 85117A   21346.78465782  .00000052  00000+0  00000+0 0  9992
2 16393  64.5292 105.0209 6864174 250.2011  28.0476  2.12397209270210
MOLNIYA 1-69            
1 17078U 86089A   21348.69342737  .00000694  00000+0  00000+0 0  9990
2 17078  64.0679 203.9352 6597807 260.4566  24.9275  2.00975356257136
MOLNIYA 3-31            
1 17328U 87008A   21345.98834191 -.00000120  00000+0  00000+0 0  9994
2 17328  63.7704 150.0348 6890099 255.2522  24.6980  2.00628363252104
MOLNIYA 1-71            
1 18946U 88017A   21347.50150123  .00000408  00000+0  00000+0 0  9996
2 18946  63.4577 146.1702 7008781 257.2474  22.3830  2.00564171247327
MOLNIYA 1-75            
1 19807U 89014A   21348.06693370  .00001160  00000+0  00000+0 0  9995
2 19807  64.1499 305.7097 6951628 268.1215  18.0706  2.00345983240285
MOLNIYA 1-80            
1 21118U 91012A   21348.47791708 -.00001047  00000+0  00000+0 0  9998
2 21118  65.1087 353.5077 6847553 280.1019  14.6149  2.05246721227196
MOLNIYA 3-40            
1 21196U 91022A   21348.12083653  .00000184  00000+0  00000+0 0  9990
2 21196  65.1013 347.0016 6880776 276.8109  15.4309  2.03020270225921
MOLNIYA 1-81            
1 21426U 91043A   21349.09810370 -.00000311  00000+0  00000+0 0  9993
2 21426  64.2044   7.6449 7115255 268.2639  16.5454  2.00609629223443
MOLNIYA 3-41            
1 21706U 91065A   21348.43130628  .00000062  00000+0  00000+0 0  9998
2 21706  64.1112 185.5803 6742369 258.0792  24.7081  2.04346070223086
MOLNIYA 3-42            
1 22178U 92067A   21347.80110428  .00000145  00000+0  00000+0 0  9993
2 22178  64.6834 235.8037 6492534 270.0905  21.2889  2.20434179 75966
MOLNIYA 1-86            
1 22671U 93035A   21349.04290462  .00000022  00000+0  77400-4 0  9999
2 22671  63.1801 343.6230 4827098   4.4121 358.6718  5.62632227341876
MOLNIYA 1-87            
1 22949U 93079A   21346.73222981 -.00000295  00000+0  00000+0 0  9999
2 22949  63.6840 113.2729 6816857 285.6253  13.3056  2.02853926 71140
MOLNIYA 1-88            
1 23420U 94081A   21348.73897277  .00000060  00000+0  00000+0 0  9995
2 23420  64.2714 236.8932 5870991 286.3500  19.4852  3.34496015107522
MOLNIYA 3-47            
1 23642U 95042A   21342.13984385  .00000205  00000+0  00000+0 0  9995
2 23642  63.7013  96.2698 6871251 285.7177  12.9561  2.01923305193154
MOLNIYA 1-90            
1 24960U 97054A   21348.58804932  .00000127  00000+0  82739-3 0  9994
2 24960  63.6291 205.0180 6189606 299.9286  12.9915  3.18686719202119
MOLNIYA 1-91            
1 25485U 98054A   21349.44168935  .00000216  00000+0  22925-2 0  9999
2 25485  62.9766 178.9561 6824830 291.8304  12.6730  2.36443081174021
MOLNIYA 3-50            
1 25847U 99036A   21349.07684312 -.00000552  00000+0  32783-4 0  9992
2 25847  62.9854   3.6885 7436214 280.8193  10.5349  2.00629459164415
